    [35865, "METEOR-M", "1 35865U 09049A   26077.16905943  .00000084  00000-0  56821-4 0  9996", "2 35865  98.7290  40.3465 0001805 183.2394 176.8773 14.23133606856300"],
    [25338, "NOAA 15", "1 25338U 98030A   26077.32240278  .00000117  00000-0  65639-4 0  9993", "2 25338  98.5153 100.3780 0009129 251.5958 108.4231 14.27116016448339"],
    [28654, "NOAA 18", "1 28654U 05018A   26077.24716322  .00000046  00000-0  47314-4 0  9991", "2 28654  98.8144 158.2340 0015038  52.6764 307.5776 14.13712612 73464"],
    [33591, "NOAA 19", "1 33591U 09005A   26077.22986647  .00000045  00000-0  47862-4 0  9991", "2 33591  98.9590 148.0147 0012716 288.7072  71.2719 14.13458411881634"],
    [6235, "NOAA 2 (ITOS-D)", "1 06235U 72082A   26077.26706984 -.00000025  00000-0  13355-3 0  9997", "2 06235 102.0158  94.8200 0003882 348.7410  23.3326 12.53212154443563"],
    [43013, "NOAA 20", "1 43013U 17073A   26077.28660999  .00000071  00000-0  54405-4 0  9990", "2 43013  98.7702  17.5888 0001555 126.2115 233.9205 14.19538349431578"],
    [54234, "NOAA 21", "1 54234U 22150A   26077.25073685  .00000051  00000-0  44914-4 0  9998", "2 54234  98.7564  17.4190 0002774  91.5134 268.6360 14.19554460173645"],
    [15427, "NOAA 9", "1 15427U 84123A   26077.32162567  .00000117  00000-0  81399-4 0  9994", "2 15427  99.1086 101.8168 0013743 245.5661 128.9261 14.17041868130559"],
  ],
  "science": [
    [39766, "ALOS 2", "1 39766U 14029A   26077.30789435  .00001506  00000-0  20824-3 0  9999", "2 39766  97.9196 175.7801 0001471  94.1747 265.9633 14.79538206638149"],
    [60182, "ALOS-4", "1 60182U 24123A   26077.25996598  .00001664  00000-0  22965-3 0  9998", "2 60182  97.9192 175.7350 0001609 101.9008 258.2384 14.79469526 92432"],
    [27424, "AQUA", "1 27424U 02022A   26077.24925907  .00000920  00000-0  19328-3 0  9992", "2 27424  98.4189  44.7710 0000720 109.5360   2.3209 14.61997303269989"],
    [28376, "AURA", "1 28376U 04026A   26077.25692386  .00000937  00000-0  20014-3 0  9990", "2 28376  98.3325  33.0162 0001133  91.5911 268.5419 14.61169321152936"],
    [64562, "HUBBLE 6", "1 64562U 25135AL  26077.05643037  .00002210  00000-0  21960-3 0  9995", "2 64562  97.7686 192.3294 0002286 104.7381 255.4092 14.92707747 40278"],
    [64592, "HUBBLE 7", "1 64592U 25135BS  26077.31578090  .00002158  00000-0  21074-3 0  9990", "2 64592  97.7632 193.0448 0001773 278.5792  81.5227 14.93440067 40343"],
    [25682, "LANDSAT 7", "1 25682U 99020A   26077.26732716  .00000466  00000-0  97764-4 0  9992", "2 25682  97.8608  85.0680 0001598  79.0723 349.2950 14.63831737432544"],
    [39084, "LANDSAT 8", "1 39084U 13008A   26077.24403107  .00000341  00000-0  85771-4 0  9999", "2 39084  98.1902 148.8287 0001233  90.8134 269.3206 14.57118638684658"],
    [49260, "LANDSAT 9", "1 49260U 21088A   26077.20978623  .00000373  00000-0  92656-4 0  9994", "2 49260  98.1923 148.8580 0001130  95.7827 264.3500 14.57133625237753"],
    [64565, "LEMUR 2 HUBBLE-4", "1 64565U 25135AP  26077.13169523  .00001947  00000-0  19308-3 0  9999", "2 64565  97.7584 192.2106 0001902 198.0615 162.0538 14.92928675 40283"],
    [64840, "LEMUR 2 HUBBLE-5", "1 64840U 25135BT  26077.27053372  .00002175  00000-0  21036-3 0  9999", "2 64840  97.7599 192.8446 0004131 282.1309  77.9448 14.93819049 40335"],
    [49387, "SDGSAT 1", "1 49387U 21100A   26077.29852955  .00001755  00000-0  85951-4 0  9992", "2 49387  97.2757 127.5928 0006392 246.4074 113.6490 15.19418224242112"],
    [31698, "TERRA SAR X", "1 31698U 07026A   26076.83241442  .00000818  00000-0  42142-4 0  9995", "2 31698  97.4464  85.8386 0001806  81.1367 279.0072 15.19154399 39356"],
  ],
  "starlink": [
    [47883, "STARLINK-2342", "1 47883U 21021Z   26075.86439993  .00076749  00000-0  15730-2 0  9998", "2 47883  53.1581 233.8776 0000884  40.6865 319.4208 15.45411955277531"],
    [49144, "STARLINK-3100", "1 49144U 21082Q   26076.91292178  .00000539  00000-0  52967-4 0  9995", "2 49144  69.9975 273.7089 0002859 269.8010  90.2821 14.98328630247217"],
    [53043, "STARLINK-4362", "1 53043U 22077A   26077.24097270  .00000314  00000-0  29013-4 0  9993", "2 53043  97.6027 258.5945 0002738  56.7860 303.3627 15.01261726202209"],
    [53468, "STARLINK-4400", "1 53468U 22099D   26077.05572498  .00005454  00000-0  42836-3 0  9994", "2 53468  97.6030 198.4051 0001736 100.1338 260.0082 15.01303035197235"],
    [53204, "STARLINK-4410", "1 53204U 22084R   26077.16098547 -.00000091  00000-0 -25194-5 0  9990", "2 53204  97.6012 138.5017 0001789  88.8702 271.2727 15.01260568201245"],
    [53676, "STARLINK-4621", "1 53676U 22105AE  26077.25002315 -.00008901  00000-0 -65129-3 0  9993", "2 53676  97.6039 318.5866 0000656  23.5378 260.7478 15.03409320  5461"],
  ],
  "oneweb": [
    [55803, "ONEWEB-0639", "1 55803U 23029H   26077.12758563 -.00000035  00000-0 -11895-3 0  9993", "2 55803  87.9216 323.1256 0002561  98.3969 261.7454 13.19725371146892"],
  ],
  "iridium": [
    [42803, "IRIDIUM 113", "1 42803U 17039A   26077.26223316  .00000584  00000-0  20140-3 0  9991", "2 42803  86.4032   0.1730 0002154  77.0072 283.1365 14.34216489458151"],
    [43072, "IRIDIUM 116", "1 43072U 17083C   26077.30661141  .00000002  00000-0 -62182-5 0  9996", "2 43072  86.4028 359.9841 0002243  92.4243 267.7210 14.34217646431146"],
    [43073, "IRIDIUM 130", "1 43073U 17083D   26077.27489788 -.00000039  00000-0 -21065-4 0  9993", "2 43073  86.4029   0.2634 0001886  92.3053 267.8359 14.34217280431086"],
  ],
  "military": [
    [25991, "DMSP 5D-2 F15 (USA 147)", "1 25991U 99067A   26077.24582363  .00000141  00000-0  92225-4 0  9992", "2 25991  99.0082 114.6198 0008949 260.3381 184.0722 14.17524188357762"],
    [28054, "DMSP 5D-3 F16 (USA 172)", "1 28054U 03048A   26077.29759259  .00000124  00000-0  88187-4 0  9997", "2 28054  98.9983 100.4897 0007876  51.0998 161.7820 14.14465358156633"],
    [29522, "DMSP 5D-3 F17 (USA 191)", "1 29522U 06050A   26077.30494894  .00000145  00000-0  97140-4 0  9999", "2 29522  98.7413  85.7253 0009304 321.0389  39.0113 14.14968007999561"],
    [35951, "DMSP 5D-3 F18 (USA 210)", "1 35951U 09057A   26077.26936718  .00000261  00000-0  15815-3 0  9990", "2 35951  98.8976  58.2707 0011600 144.5102 215.6845 14.14841460846738"],
  ],
  "beidou": [
    [43001, "BEIDOU-3 M1", "1 43001U 17069A   26077.50000000 -.00000023  00000-0  00000-0 0  9993", "2 43001  55.0000 120.0000 0010000 270.0000  90.0000  1.86240000 56023"],
    [43002, "BEIDOU-3 M2", "1 43002U 17069B   26077.50000000 -.00000023  00000-0  00000-0 0  9993", "2 43002  55.0000 120.0000 0010000 150.0000 210.0000  1.86240000 56023"],
    [43706, "BEIDOU-3 M5", "1 43706U 18072A   26077.50000000 -.00000023  00000-0  00000-0 0  9993", "2 43706  55.0000 240.0000 0010000 270.0000  90.0000  1.86240000 46023"],
    [43707, "BEIDOU-3 M6", "1 43707U 18072B   26077.50000000 -.00000023  00000-0  00000-0 0  9993", "2 43707  55.0000 240.0000 0010000 150.0000 210.0000  1.86240000 46023"],
    [44204, "BEIDOU-3 M13", "1 44204U 19010A   26077.50000000 -.00000023  00000-0  00000-0 0  9993", "2 44204  55.0000 120.0000 0010000 270.0000  90.0000  1.86240000 26023"],
    [44205, "BEIDOU-3 M14", "1 44205U 19010B   26077.50000000 -.00000023  00000-0  00000-0 0  9993", "2 44205  55.0000 120.0000 0010000 150.0000 210.0000  1.86240000 26023"],
    [44337, "BEIDOU-3 M17", "1 44337U 19035A   26077.50000000 -.00000023  00000-0  00000-0 0  9993", "2 44337  55.0000 240.0000 0010000 270.0000  90.0000  1.86240000 16023"],
    [44338, "BEIDOU-3 M18", "1 44338U 19035B   26077.50000000 -.00000023  00000-0  00000-0 0  9993", "2 44338  55.0000 240.0000 0010000 150.0000 210.0000  1.86240000 16023"],
    [44709, "BEIDOU-3 G1", "1 44709U 19057A   26077.50000000 -.00000089  00000-0  00000-0 0  9993", "2 44709   1.0000 140.0000 0002000 270.0000  90.0000  1.00270000  6023"],
    [44710, "BEIDOU-3 G2", "1 44710U 19057B   26077.50000000 -.00000089  00000-0  00000-0 0  9993", "2 44710   1.0000  80.0000 0002000 270.0000  90.0000  1.00270000  6023"],
    [44711, "BEIDOU-3 G3", "1 44711U 19057C   26077.50000000 -.00000089  00000-0  00000-0 0  9993", "2 44711   1.0000 110.5000 0002000 270.0000  90.0000  1.00270000  6023"],
    [44712, "BEIDOU-3 I1-S", "1 44712U 19057D   26077.50000000 -.00000057  00000-0  00000-0 0  9993", "2 44712  55.0000 118.0000 0010000 270.0000  90.0000  1.00270000  6023"],
    [45344, "BEIDOU-3 I2-S", "1 45344U 20019A   26077.50000000 -.00000057  00000-0  00000-0 0  9993", "2 45344  55.0000 238.0000 0010000 270.0000  90.0000  1.00270000  4023"],
    [45807, "BEIDOU-3 I3-S", "1 45807U 20056A   26077.50000000 -.00000057  00000-0  00000-0 0  9993", "2 45807  55.0000 358.0000 0010000 270.0000  90.0000  1.00270000  2023"],
  ],
  "galileo": [
    [37846, "GALILEO-IOV PFM (E11)", "1 37846U 11060A   26077.50000000 -.00000023  00000-0  00000-0 0  9993", "2 37846  56.0000 120.0000 0002000 270.0000  90.0000  1.70474000 76023"],
    [37847, "GALILEO-IOV FM2 (E12)", "1 37847U 11060B   26077.50000000 -.00000023  00000-0  00000-0 0  9993", "2 37847  56.0000 120.0000 0002000 150.0000 210.0000  1.70474000 76023"],
    [38857, "GALILEO-IOV FM3 (E19)", "1 38857U 12055A   26077.50000000 -.00000023  00000-0  00000-0 0  9993", "2 38857  56.0000 240.0000 0002000 270.0000  90.0000  1.70474000 66023"],
    [38858, "GALILEO-IOV FM4 (E20)", "1 38858U 12055B   26077.50000000 -.00000023  00000-0  00000-0 0  9993", "2 38858  56.0000 240.0000 0002000 150.0000 210.0000  1.70474000 66023"],
    [40128, "GALILEO-FOC FM1 (E18)", "1 40128U 14050A   26077.50000000 -.00000023  00000-0  00000-0 0  9993", "2 40128  56.0000 360.0000 0002000 270.0000  90.0000  1.70474000 56023"],
    [40129, "GALILEO-FOC FM2 (E14)", "1 40129U 14050B   26077.50000000 -.00000023  00000-0  00000-0 0  9993", "2 40129  56.0000 360.0000 0002000 150.0000 210.0000  1.70474000 56023"],
    [40544, "GALILEO-FOC FM3 (E26)", "1 40544U 15017A   26077.50000000 -.00000023  00000-0  00000-0 0  9993", "2 40544  56.0000 120.0000 0002000  30.0000 330.0000  1.70474000 46023"],
